QIANFAN-1               
1 60379U 24140A   25330.47247532  .00000111  00000+0  15305-3 0  9992
2 60379  88.9743 300.9654 0015526 262.3550  97.5837 13.50974829 65159
QIANFAN-2               
1 60380U 24140B   25330.50150727  .00000089  00000+0  11940-3 0  9992
2 60380  88.9729 300.8039 0011019 229.7789 130.2399 13.50972831 65211
QIANFAN-3               
1 60381U 24140C   25330.43561885  .00000098  00000+0  13397-3 0  9994
2 60381  88.9721 300.9447 0011972 244.9618 115.0290 13.50978888 65114
QIANFAN-4               
1 60382U 24140D   25330.48486348  .00000086  00000+0  11530-3 0  9994
2 60382  88.9746 300.8331 0011209 233.0093 127.0033 13.50979177 65246
QIANFAN-5               
1 60383U 24140E   25330.46028058  .00000097  00000+0  13206-3 0  9997
2 60383  88.9721 300.9676 0013197 257.9857 101.9815 13.50976548 65107
QIANFAN-6               
1 60384U 24140F   25330.40681294  .00000086  00000+0  11412-3 0  9994
2 60384  88.9748 300.7149 0011236 240.1694 119.8341 13.50977083 65292
QIANFAN-7               
1 60385U 24140G   25330.41352157  .00000627  00000+0  24843-3 0  9992
2 60385  88.9764 295.6396 0017341  92.7934 267.5246 14.27617950 68060
QIANFAN-8               
1 60386U 24140H   25330.41504311  .00000078  00000+0  10296-3 0  9991
2 60386  88.9749 300.9513 0014673 243.3236 116.6413 13.50975033 65149
